ONEWEB-0387             
1 49313U 21090AL  25248.74837664  .00000049  00000+0  88627-4 0  9995
2 49313  87.9282 331.1743 0002163 101.5037 258.6340 13.20770093192270
ONEWEB-0388             
1 49314U 21090AM  25248.86742295 -.00000122  00000+0 -33602-3 0  9990
2 49314  87.9276   1.5127 0001877  96.1367 263.9979 13.19727082188915
ONEWEB-0389             
1 50469U 21132A   25248.89370834 -.00000020  00000+0 -84991-4 0  9994
2 50469  87.9039  62.4256 0002125  92.9007 267.2367 13.17649553180640
ONEWEB-0390             
1 50470U 21132B   25248.89538611  .00000046  00000+0  86281-4 0  9995
2 50470  87.9041  62.4315 0001675  99.9125 260.2196 13.17648567180645
ONEWEB-0391             
1 50471U 21132C   25248.89707000  .00000016  00000+0  76050-5 0  9997
2 50471  87.9033  62.4444 0002489 103.2615 256.8794 13.17650660180649
ONEWEB-0392             
1 50472U 21132D   25248.92744494  .00000086  00000+0  18877-3 0  9998
2 50472  87.9039  62.3831 0002096  94.9496 265.1875 13.17650170180685
ONEWEB-0393             
1 50473U 21132E   25248.90055062  .00000009  00000+0 -88977-5 0  9999
2 50473  87.9041  62.4082 0001904  92.7535 267.3815 13.17647028180670
ONEWEB-0394             
1 50474U 21132F   25248.94033917 -.00000121  00000+0 -34005-3 0  9996
2 50474  87.9175  31.8824 0001906  94.8520 265.2830 13.18687001184137
